ONEWEB-0201             
1 48241U 21031AH  24045.61397251  .00000013  00000+0  14818-5 0  9995
2 48241  87.8934  99.6206 0001724  97.6287 262.5039 13.14502246136246
ONEWEB-0207             
1 48242U 21031AJ  24045.66946199 -.00000165  00000+0 -47902-3 0  9990
2 48242  87.8933  99.5769 0001746 107.6347 252.4973 13.14502939136167
ONEWEB-0208             
1 48243U 21031AK  24045.65123848 -.00000070  00000+0 -22351-3 0  9994
2 48243  87.8931  99.5958 0001728  94.6222 265.5105 13.14502925136171
ONEWEB-0200             
1 48244U 21031AL  24045.61477000  .00000017  00000+0  12241-4 0  9990
2 48244  87.8931  99.6024 0001738  92.0074 268.1255 13.14501990136092
ONEWEB-0217             
1 48245U 21031AM  24045.55450346 -.00000203  00000+0 -58147-3 0  9991
2 48245  87.8931  99.5986 0001712  87.6741 272.4585 13.14503367136030
ONEWEB-0211             
1 48767U 21045A   24045.57968997  .00000145  00000+0  35096-3 0  9994
2 48767  87.8943  69.0791 0001864  92.5850 267.5494 13.15552447132182
ONEWEB-0223             
1 48768U 21045B   24045.60186191  .00000120  00000+0  28598-3 0  9999
2 48768  87.8948  69.0780 0002448  78.0650 282.0755 13.15550000132176
ONEWEB-0230             
1 48769U 21045C   24045.80152532 -.00000054  00000+0 -17709-3 0  9994
2 48769  87.8945  69.1105 0002029  94.9681 265.1681 13.15549344133576
ONEWEB-0237             
1 48770U 21045D   24045.56225983 -.00000070  00000+0 -21924-3 0  9992
2 48770  87.8952  69.0820 0002241  84.0600 276.0786 13.15548725132158
ONEWEB-0235             
1 48771U 21045E   24045.61296680 -.00000025  00000+0 -10049-3 0  9997
2 48771  87.8947  69.0918 0002576  81.7249 278.4173 13.15547924132151
ONEWEB-0242             
1 48772U 21045F   24045.60663039  .00000065  00000+0  13809-3 0  9992
2 48772  87.8946  69.0827 0002131  91.4169 268.7206 13.15548138132197
ONEWEB-0241             
1 48773U 21045G   24045.59395177  .00000175  00000+0  43010-3 0  9995
2 48773  87.8953  69.1205 0001903  78.1709 281.9635 13.15548631132107
ONEWEB-0243             
1 48774U 21045H   24045.54958147 -.00000114  00000+0 -33757-3 0  9995
2 48774  87.8955  69.0873 0002349  87.2733 272.8666 13.15548411132124
ONEWEB-0222             
1 48775U 21045J   24045.91668981  .00042913  00000+0  11266+0 0  9999
2 48775  87.8945  69.0338 0002036  83.8073 267.0833 13.16008355133337
ONEWEB-0244             
1 48776U 21045K   24045.55908757 -.00000114  00000+0 -33779-3 0  9994
2 48776  87.8942  69.0867 0002184  94.4302 265.7078 13.15549004132738
ONEWEB-0247             
1 48777U 21045L   24045.55592855 -.00000049  00000+0 -16313-3 0  9995
2 48777  87.8948  69.1187 0002946  79.6606 280.4856 13.15547965132179
ONEWEB-0245             
1 48778U 21045M   24045.55116841 -.00000070  00000+0 -21911-3 0  9997
2 48778  87.8941  69.1173 0001826  82.9725 277.1613 13.15549086132140
ONEWEB-0229             
1 48779U 21045N   24045.77458810 -.00000032  00000+0 -11914-3 0  9997
2 48779  87.8945  69.0645 0002103  90.3091 269.8280 13.15548307133331
ONEWEB-0228             
1 48780U 21045P   24045.56146423 -.00000036  00000+0 -12960-3 0  9996
2 48780  87.8941  69.0854 0002013  91.5063 268.6298 13.15547916132096
ONEWEB-0232             
1 48781U 21045Q   24045.78250535 -.00000177  00000+0 -50332-3 0  9992
2 48781  87.8937  69.0682 0002040  91.2778 268.8586 13.15548143133569
ONEWEB-0231             
1 48782U 21045R   24045.76031498 -.00001244  00000+0 -33385-2 0  9990
2 48782  87.8958  69.0838 0002098  86.4806 273.6565 13.15555363133278
ONEWEB-0234             
1 48783U 21045S   24045.55195707 -.00000096  00000+0 -29024-3 0  9992
2 48783  87.8944  69.0937 0000497  99.6228 260.4958 13.15548405132244
ONEWEB-0238             
1 48784U 21045T   24045.58205254  .00000137  00000+0  33032-3 0  9993
2 48784  87.8943  69.1066 0001742  94.1734 265.9595 13.15549956132142
ONEWEB-0240             
1 48785U 21045U   24045.81974765  .00000137  00000+0  32980-3 0  9991
2 48785  87.8944  69.0272 0001960  77.7641 282.3708 13.15548203133322
ONEWEB-0246             
1 48786U 21045V   24045.58601425  .00000187  00000+0  46318-3 0  9991
2 48786  87.8945  69.0765 0002254  84.8970 275.2418 13.15548832132047
ONEWEB-0210             
1 48787U 21045W   24045.56066380 -.00000026  00000+0 -10191-3 0  9999
2 48787  87.8942  69.0882 0002648  92.9948 267.1485 13.15549730132083
ONEWEB-0214             
1 48788U 21045X   24045.57018572  .00000094  00000+0  21683-3 0  9992
2 48788  87.8943  69.0749 0002669  95.6822 264.4613 13.15544965132056
ONEWEB-0221             
1 48789U 21045Y   24045.57650883  .00000118  00000+0  27869-3 0  9999
2 48789  87.8945  69.0882 0002042  85.0223 275.1140 13.15549874132148
ONEWEB-0213             
1 48790U 21045Z   24045.56542233 -.00000002  00000+0 -38495-4 0  9991
2 48790  87.8943  69.1063 0002208  84.1858 275.9524 13.15549406132200
ONEWEB-0212             
1 48791U 21045AA  24045.61851221 -.00000018  00000+0 -81663-4 0  9990
2 48791  87.8947  69.0759 0001785  92.3613 267.7722 13.15548404132201
ONEWEB-0227             
1 48792U 21045AB  24045.61772467 -.00000048  00000+0 -16121-3 0  9994
2 48792  87.8947  69.0931 0001902  87.9161 272.2187 13.15547801132153
ONEWEB-0226             
1 48793U 21045AC  24045.61137916 -.00000008  00000+0 -55033-4 0  9991
2 48793  87.8948  69.1019 0002465  87.1128 273.0284 13.15548282132121
ONEWEB-0224             
1 48794U 21045AD  24045.57494122  .00000085  00000+0  19171-3 0  9997
2 48794  87.8948  69.1250 0001901  67.2085 292.9246 13.15549228132044
ONEWEB-0233             
1 48795U 21045AE  24045.57097564  .00000036  00000+0  60712-4 0  9991
2 48795  87.8947  69.1385 0002123  92.8097 267.3276 13.15548669132066
ONEWEB-0190             
1 48796U 21045AF  24045.56699643 -.00000010  00000+0 -59701-4 0  9997
2 48796  87.8948  69.1016 0002818  74.5558 285.5884 13.15550216132135
ONEWEB-0236             
1 48797U 21045AG  24045.58444384  .00000168  00000+0  41325-3 0  9994
2 48797  87.8953  69.0872 0001848  88.5007 271.6335 13.15548997132025
ONEWEB-0248             
1 48798U 21045AH  24045.59711498  .00000139  00000+0  33578-3 0  9998
2 48798  87.8943  69.0862 0002055  67.5066 292.6282 13.15549679132186
ONEWEB-0225             
1 48799U 21045AJ  24045.77141555  .00000002  00000+0 -30001-4 0  9999
2 48799  87.8949  69.0572 0002178  79.5900 280.5475 13.15548495133352
ONEWEB-0215             
1 48800U 21045AK  24045.81736378  .00000184  00000+0  45400-3 0  9998
2 48800  87.8943  69.0294 0002363  68.9630 291.1752 13.15549356133216
ONEWEB-0216             
1 48801U 21045AL  24045.59871283  .00000204  00000+0  50780-3 0  9999
2 48801  87.8944  69.1127 0002216  94.9082 265.2302 13.15548594132070
ONEWEB-0239             
1 48802U 21045AM  24045.60345749  .00000103  00000+0  23835-3 0  9994
2 48802  87.8955  69.0765 0002224  66.9265 293.2099 13.15549292132116
ONEWEB-0249             
1 48967U 21060A   24045.53024494  .00000061  00000+0  12607-3 0  9994
2 48967  87.9057  38.6601 0001815  87.0151 273.1188 13.16595527127287
ONEWEB-0250             
1 48968U 21060B   24045.68700246  .00000005  00000+0 -20981-4 0  9991
2 48968  87.9056  38.6130 0001912  76.6422 283.4922 13.16594512128573
ONEWEB-0252             
1 48970U 21060D   24045.48592115  .00000000  00000+0 -33701-4 0  9995
2 48970  87.9055  38.6621 0002024  88.8798 271.2564 13.16595245127329
ONEWEB-0253             
1 48971U 21060E   24045.47484818  .00000048  00000+0  92977-4 0  9996
2 48971  87.9053  38.6793 0002148  81.3180 278.8194 13.16592995127251
ONEWEB-0254             
1 48972U 21060F   24045.48433957  .00000076  00000+0  16424-3 0  9999
2 48972  87.9054  38.6526 0002153  80.4994 279.6380 13.16593422127258
ONEWEB-0255             
1 48973U 21060G   24045.67433536  .00000127  00000+0  29744-3 0  9990
2 48973  87.9057  38.6500 0001835  84.5295 275.6045 13.16594537128645
ONEWEB-0256             
1 48974U 21060H   24045.47247453  .00000022  00000+0  22824-4 0  9997
2 48974  87.9057  38.6894 0001956  92.2806 267.8549 13.16592263127296
ONEWEB-0257             
1 48975U 21060J   24045.50490983  .00000110  00000+0  25419-3 0  9990
2 48975  87.9054  38.6572 0002041  88.8407 271.2957 13.16595804127253
ONEWEB-0258             
1 48976U 21060K   24045.50650737  .00000152  00000+0  36341-3 0  9998
2 48976  87.9055  38.6859 0001809  85.3532 274.7805 13.16594559127262
ONEWEB-0259             
1 48977U 21060L   24045.50017412  .00000085  00000+0  18971-3 0  9990
2 48977  87.9052  38.6721 0001787  77.1472 282.9858 13.16594314127296
ONEWEB-0260             
1 48978U 21060M   24045.49383997  .00000152  00000+0  36516-3 0  9993
2 48978  87.9053  38.7027 0002405  99.0677 261.0726 13.16595319127272
ONEWEB-0261             
1 48979U 21060N   24045.68856948  .00000004  00000+0 -23061-4 0  9995
2 48979  87.9059  38.6534 0002383  78.2511 281.8887 13.16593734128652
ONEWEB-0262             
1 48980U 21060P   24045.51757988  .00000077  00000+0  16688-3 0  9998
2 48980  87.9056  38.6549 0001934  70.9281 289.2059 13.16596355127295
ONEWEB-0263             
1 48981U 21060Q   24045.47324302 -.00000011  00000+0 -63382-4 0  9998
2 48981  87.9058  38.6764 0002260  76.0439 284.0943 13.16595896127252
ONEWEB-0264             
1 48982U 21060R   24045.51046793  .00000076  00000+0  16491-3 0  9996
2 48982  87.9059  38.6814 0001941  85.7313 274.4039 13.16594379127268
ONEWEB-0266             
1 48984U 21060T   24045.53182893  .00000021  00000+0  21017-4 0  9993
2 48984  87.9056  38.6575 0001694  86.1498 273.9827 13.16595397127254
ONEWEB-0267             
1 48985U 21060U   24045.69491873  .00000007  00000+0 -14796-4 0  9993
2 48985  87.9055  38.6265 0002298  84.1075 276.0318 13.16594635128579
ONEWEB-0268             
1 48986U 21060V   24045.73924762  .00000103  00000+0  23632-3 0  9991
2 48986  87.9056  38.6236 0002032  89.3159 270.8204 13.16595591128843
